[{"OBJECT_NAME":"GLOBALSTAR M045","OBJECT_ID":"1999-019A","EPOCH":"2026-04-05T12:31:32.577312","MEAN_MOTION":12.27073398,"ECCENTRICITY":5.736e-5,"INCLINATION":51.9965,"RA_OF_ASC_NODE":192.042,"ARG_OF_PERICENTER":138.264,"MEAN_ANOMALY":236.5535,"EPHEMERIS_TYPE":0,"CLASSIFICATION_TYPE":"U","NORAD_CAT_ID":25676,"ELEMENT_SET_NO":999,"REV_AT_EPOCH":22928,"BSTAR":-0.00043698312,"MEAN_MOTION_DOT":-1.43e-6,"MEAN_MOTION_DDOT":0},{"OBJECT_NAME":"GLOBALSTAR M019","OBJECT_ID":"1999-019B","EPOCH":"2026-04-05T10:36:49.408128","MEAN_MOTION":12.13882876,"ECCENTRICITY":0.0001281,"INCLINATION":51.9909,"RA_OF_ASC_NODE":343.2055,"ARG_OF_PERICENTER":152.8799,"MEAN_ANOMALY":18.1609,"EPHEMERIS_TYPE":0,"CLASSIFICATION_TYPE":"U","NORAD_CAT_ID":25677,"ELEMENT_SET_NO":999,"REV_AT_EPOCH":22063,"BSTAR":0.00080357075,"MEAN_MOTION_DOT":-1.3e-7,"MEAN_MOTION_DDOT":0},{"OBJECT_NAME":"GLOBALSTAR M044","OBJECT_ID":"1999-019C","EPOCH":"2026-04-05T13:51:54.943200","MEAN_MOTION":11.90264852,"ECCENTRICITY":0.00055091,"INCLINATION":51.9995,"RA_OF_ASC_NODE":330.7665,"ARG_OF_PERICENTER":240.8565,"MEAN_ANOMALY":125.7013,"EPHEMERIS_TYPE":0,"CLASSIFICATION_TYPE":"U","NORAD_CAT_ID":25678,"ELEMENT_SET_NO":999,"REV_AT_EPOCH":20614,"BSTAR":0.00075840082,"MEAN_MOTION_DOT":-2.9e-7,"MEAN_MOTION_DDOT":0},{"OBJECT_NAME":"GLOBALSTAR M042","OBJECT_ID":"1999-019D","EPOCH":"2026-04-05T07:40:34.599360","MEAN_MOTION":12.22095603,"ECCENTRICITY":0.0002888,"INCLINATION":52.0023,"RA_OF_ASC_NODE":306.2464,"ARG_OF_PERICENTER":165.5414,"MEAN_ANOMALY":5.1963,"EPHEMERIS_TYPE":0,"CLASSIFICATION_TYPE":"U","NORAD_CAT_ID":25679,"ELEMENT_SET_NO":999,"REV_AT_EPOCH":22097,"BSTAR":0.00038172,"MEAN_MOTION_DOT":-5.2e-7,"MEAN_MOTION_DDOT":0},{"OBJECT_NAME":"GLOBALSTAR M025","OBJECT_ID":"1999-031A","EPOCH":"2026-04-05T12:56:20.654016","MEAN_MOTION":11.225607,"ECCENTRICITY":0.00019291,"INCLINATION":51.9805,"RA_OF_ASC_NODE":202.0132,"ARG_OF_PERICENTER":247.704,"MEAN_ANOMALY":125.1045,"EPHEMERIS_TYPE":0,"CLASSIFICATION_TYPE":"U","NORAD_CAT_ID":25770,"ELEMENT_SET_NO":999,"REV_AT_EPOCH":51454,"BSTAR":-6.9255559e-5,"MEAN_MOTION_DOT":-7.0e-7,"MEAN_MOTION_DDOT":0},{"OBJECT_NAME":"GLOBALSTAR M049","OBJECT_ID":"1999-031B","EPOCH":"2026-04-05T13:16:28.564032","MEAN_MOTION":11.12123849,"ECCENTRICITY":0.00033336,"INCLINATION":51.9863,"RA_OF_ASC_NODE":251.4351,"ARG_OF_PERICENTER":142.4791,"MEAN_ANOMALY":217.6239,"EPHEMERIS_TYPE":0,"CLASSIFICATION_TYPE":"U","NORAD_CAT_ID":25771,"ELEMENT_SET_NO":999,"REV_AT_EPOCH":14995,"BSTAR":-0.0014022913,"MEAN_MOTION_DOT":-1.06e-6,"MEAN_MOTION_DDOT":0},{"OBJECT_NAME":"GLOBALSTAR M047","OBJECT_ID":"1999-031C","EPOCH":"2026-04-05T14:57:56.400480","MEAN_MOTION":11.31933096,"ECCENTRICITY":0.00164105,"INCLINATION":51.9821,"RA_OF_ASC_NODE":220.3053,"ARG_OF_PERICENTER":47.9962,"MEAN_ANOMALY":312.2239,"EPHEMERIS_TYPE":0,"CLASSIFICATION_TYPE":"U","NORAD_CAT_ID":25772,"ELEMENT_SET_NO":999,"REV_AT_EPOCH":50422,"BSTAR":0.00040941635,"MEAN_MOTION_DOT":-5.5e-7,"MEAN_MOTION_DDOT":0},{"OBJECT_NAME":"GLOBALSTAR M052","OBJECT_ID":"1999-031D","EPOCH":"2026-04-05T11:52:39.959616","MEAN_MOTION":11.15063819,"ECCENTRICITY":0.00021072,"INCLINATION":51.9911,"RA_OF_ASC_NODE":356.1323,"ARG_OF_PERICENTER":308.0139,"MEAN_ANOMALY":222.7398,"EPHEMERIS_TYPE":0,"CLASSIFICATION_TYPE":"U","NORAD_CAT_ID":25773,"ELEMENT_SET_NO":999,"REV_AT_EPOCH":51111,"BSTAR":0.00071121024,"MEAN_MOTION_DOT":-4.5e-7,"MEAN_MOTION_DDOT":0},{"OBJECT_NAME":"GLOBALSTAR M035","OBJECT_ID":"1999-037A","EPOCH":"2026-04-05T10:54:09.780768","MEAN_MOTION":11.04541458,"ECCENTRICITY":0.00135805,"INCLINATION":51.9924,"RA_OF_ASC_NODE":123.1758,"ARG_OF_PERICENTER":97.0245,"MEAN_ANOMALY":51.3178,"EPHEMERIS_TYPE":0,"CLASSIFICATION_TYPE":"U","NORAD_CAT_ID":25851,"ELEMENT_SET_NO":999,"REV_AT_EPOCH":12855,"BSTAR":0.00084739148,"MEAN_MOTION_DOT":-4.1e-7,"MEAN_MOTION_DDOT":0},{"OBJECT_NAME":"GLOBALSTAR M032","OBJECT_ID":"1999-037B","EPOCH":"2026-04-05T12:11:33.790272","MEAN_MOTION":11.19069284,"ECCENTRICITY":0.00120081,"INCLINATION":51.9957,"RA_OF_ASC_NODE":288.0917,"ARG_OF_PERICENTER":300.2534,"MEAN_ANOMALY":59.7077,"EPHEMERIS_TYPE":0,"CLASSIFICATION_TYPE":"U","NORAD_CAT_ID":25852,"ELEMENT_SET_NO":999,"REV_AT_EPOCH":16751,"BSTAR":-0.0004143112,"MEAN_MOTION_DOT":-8.0e-7,"MEAN_MOTION_DDOT":0},{"OBJECT_NAME":"GLOBALSTAR M051","OBJECT_ID":"1999-037C","EPOCH":"2026-04-05T06:14:03.600960","MEAN_MOTION":11.42201256,"ECCENTRICITY":2.75e-5,"INCLINATION":51.9804,"RA_OF_ASC_NODE":56.2979,"ARG_OF_PERICENTER":105.7221,"MEAN_ANOMALY":254.362,"EPHEMERIS_TYPE":0,"CLASSIFICATION_TYPE":"U","NORAD_CAT_ID":25853,"ELEMENT_SET_NO":999,"REV_AT_EPOCH":16576,"BSTAR":-3.5343e-5,"MEAN_MOTION_DOT":-7.3e-7,"MEAN_MOTION_DDOT":0},{"OBJECT_NAME":"GLOBALSTAR M030","OBJECT_ID":"1999-037D","EPOCH":"2026-04-05T13:41:07.891008","MEAN_MOTION":11.55108068,"ECCENTRICITY":0.00038435,"INCLINATION":51.9868,"RA_OF_ASC_NODE":203.0624,"ARG_OF_PERICENTER":192.1937,"MEAN_ANOMALY":167.8787,"EPHEMERIS_TYPE":0,"CLASSIFICATION_TYPE":"U","NORAD_CAT_ID":25854,"ELEMENT_SET_NO":999,"REV_AT_EPOCH":18383,"BSTAR":0.0018320572,"MEAN_MOTION_DOT":1.1e-7,"MEAN_MOTION_DDOT":0},{"OBJECT_NAME":"GLOBALSTAR M048","OBJECT_ID":"1999-041A","EPOCH":"2026-04-05T02:39:56.916288","MEAN_MOTION":11.33862956,"ECCENTRICITY":0.00131963,"INCLINATION":51.9413,"RA_OF_ASC_NODE":2.9778,"ARG_OF_PERICENTER":333.0438,"MEAN_ANOMALY":167.0788,"EPHEMERIS_TYPE":0,"CLASSIFICATION_TYPE":"U","NORAD_CAT_ID":25872,"ELEMENT_SET_NO":999,"REV_AT_EPOCH":15809,"BSTAR":0.00046855428,"MEAN_MOTION_DOT":-5.3e-7,"MEAN_MOTION_DDOT":0},{"OBJECT_NAME":"GLOBALSTAR M026","OBJECT_ID":"1999-041B","EPOCH":"2026-04-05T13:52:07.537728","MEAN_MOTION":11.06842963,"ECCENTRICITY":0.00018132,"INCLINATION":51.9997,"RA_OF_ASC_NODE":237.7765,"ARG_OF_PERICENTER":54.2581,"MEAN_ANOMALY":27.3098,"EPHEMERIS_TYPE":0,"CLASSIFICATION_TYPE":"U","NORAD_CAT_ID":25873,"ELEMENT_SET_NO":999,"REV_AT_EPOCH":18086,"BSTAR":0.0011867713,"MEAN_MOTION_DOT":-3.2e-7,"MEAN_MOTION_DDOT":0},{"OBJECT_NAME":"GLOBALSTAR M043","OBJECT_ID":"1999-041C","EPOCH":"2026-04-05T09:30:24.104448","MEAN_MOTION":11.25699601,"ECCENTRICITY":0.00134323,"INCLINATION":51.937,"RA_OF_ASC_NODE":121.5849,"ARG_OF_PERICENTER":91.096,"MEAN_ANOMALY":283.05,"EPHEMERIS_TYPE":0,"CLASSIFICATION_TYPE":"U","NORAD_CAT_ID":25874,"ELEMENT_SET_NO":999,"REV_AT_EPOCH":15578,"BSTAR":0.0010221551,"MEAN_MOTION_DOT":-3.4e-7,"MEAN_MOTION_DDOT":0},{"OBJECT_NAME":"GLOBALSTAR M028","OBJECT_ID":"1999-041D","EPOCH":"2026-04-05T14:14:57.767424","MEAN_MOTION":12.50598518,"ECCENTRICITY":0.00635702,"INCLINATION":51.9645,"RA_OF_ASC_NODE":41.1454,"ARG_OF_PERICENTER":346.9516,"MEAN_ANOMALY":12.9699,"EPHEMERIS_TYPE":0,"CLASSIFICATION_TYPE":"U","NORAD_CAT_ID":25875,"ELEMENT_SET_NO":999,"REV_AT_EPOCH":22676,"BSTAR":2.8080439e-5,"MEAN_MOTION_DOT":-9.6e-7,"MEAN_MOTION_DDOT":0}]
