GLOBALSTAR M045         
1 25676U 99019A   26095.52190483 -.00000143  00000+0 -43698-3 0  9990
2 25676  51.9965 192.0420 0000573 138.2640 236.5535 12.27073398229284
GLOBALSTAR M019         
1 25677U 99019B   26095.44223852 -.00000013  00000+0  80357-3 0  9997
2 25677  51.9909 343.2055 0001281 152.8799  18.1609 12.13882876220631
GLOBALSTAR M044         
1 25678U 99019C   26095.57771925 -.00000029  00000+0  75840-3 0  9999
2 25678  51.9995 330.7665 0005509 240.8565 125.7013 11.90264852206147
GLOBALSTAR M042         
1 25679U 99019D   26095.31984490 -.00000052  00000+0  38172-3 0  9998
2 25679  52.0023 306.2464 0002888 165.5414   5.1963 12.22095603220974
GLOBALSTAR M025         
1 25770U 99031A   26095.53912794 -.00000070  00000+0 -69256-4 0  9995
2 25770  51.9805 202.0132 0001929 247.7040 125.1045 11.22560700514547
GLOBALSTAR M049         
1 25771U 99031B   26095.55310838 -.00000106  00000+0 -14023-2 0  9999
2 25771  51.9863 251.4351 0003333 142.4791 217.6239 11.12123849149957
GLOBALSTAR M047         
1 25772U 99031C   26095.62356945 -.00000055  00000+0  40942-3 0  9999
2 25772  51.9821 220.3053 0016410  47.9962 312.2239 11.31933096504226
GLOBALSTAR M052         
1 25773U 99031D   26095.49490694 -.00000045  00000+0  71121-3 0  9997
2 25773  51.9911 356.1323 0002107 308.0139 222.7398 11.15063819511116
GLOBALSTAR M035         
1 25851U 99037A   26095.45427987 -.00000041  00000+0  84739-3 0  9996
2 25851  51.9924 123.1758 0013580  97.0245  51.3178 11.04541458128553
GLOBALSTAR M032         
1 25852U 99037B   26095.50802998 -.00000080  00000+0 -41431-3 0  9998
2 25852  51.9957 288.0917 0012008 300.2534  59.7077 11.19069284167519
GLOBALSTAR M051         
1 25853U 99037C   26095.25976390 -.00000073  00000+0 -35343-4 0  9997
2 25853  51.9804  56.2979 0000275 105.7221 254.3620 11.42201256165763
GLOBALSTAR M030         
1 25854U 99037D   26095.57023022  .00000011  00000+0  18321-2 0  9993
2 25854  51.9868 203.0624 0003843 192.1937 167.8787 11.55108068183832
GLOBALSTAR M048         
1 25872U 99041A   26095.11107542 -.00000053  00000+0  46855-3 0  9999
2 25872  51.9413   2.9778 0013196 333.0438 167.0788 11.33862956158090
GLOBALSTAR M026         
1 25873U 99041B   26095.57786502 -.00000032  00000+0  11868-2 0  9991
2 25873  51.9997 237.7765 0001813  54.2581  27.3098 11.06842963180864
GLOBALSTAR M043         
1 25874U 99041C   26095.39611232 -.00000034  00000+0  10222-2 0  9994
2 25874  51.9370 121.5849 0013432  91.0960 283.0500 11.25699601155785
GLOBALSTAR M028         
1 25875U 99041D   26095.59372416 -.00000096  00000+0  28080-4 0  9996
2 25875  51.9645  41.1454 0063570 346.9516  12.9699 12.50598518226766
